O3B MPOWER F1           
1 54755U 22174A   23195.80348642 -.00000026  00000+0  00000+0 0  9994
2 54755   0.0384   9.5407 0002818 183.6205 302.6001  5.00112114 11898
